{
  "norad_id": 60288,
  "name": "STARLINK-31997",
  "history": [
    {
      "epoch": "2026-03-28T21:11:48.247584Z",
      "apogee_km": 476.1947435129259,
      "perigee_km": 474.33555257820353,
      "latitude_deg": 1.4256672957287586e-05,
      "longitude_deg": 178.7000241097164,
      "height_km": 476.2259588631229,
      "semi_major_axis_km": 6853.402148045564,
      "eccentricity": 0.00013564,
      "inclination_deg": 53.1612,
      "raan_deg": 322.9483,
      "arg_perigee_deg": 93.8694,
      "mean_anomaly_deg": 266.2462,
      "mean_motion_rev_day": 15.30183228
    },
    {
      "epoch": "2026-03-28T22:45:51.023808Z",
      "apogee_km": 476.0798518606798,
      "perigee_km": 474.40762696026377,
      "latitude_deg": 4.659715753639946e-05,
      "longitude_deg": 154.81910819376057,
      "height_km": 476.1101590986187,
      "semi_major_axis_km": 6853.3807394104715,
      "eccentricity": 0.000122,
      "inclination_deg": 53.161,
      "raan_deg": 322.6433,
      "arg_perigee_deg": 87.8188,
      "mean_anomaly_deg": 272.2953,
      "mean_motion_rev_day": 15.30190398
    },
    {
      "epoch": "2026-03-29T22:16:38.955360Z",
      "apogee_km": 475.9479704938076,
      "perigee_km": 474.53261101572116,
      "latitude_deg": 3.6310740283902005e-05,
      "longitude_deg": 156.6035286770066,
      "height_km": 476.07526701008527,
      "semi_major_axis_km": 6853.3772907547645,
      "eccentricity": 0.00010326,
      "inclination_deg": 53.1598,
      "raan_deg": 318.0931,
      "arg_perigee_deg": 84.8603,
      "mean_anomaly_deg": 275.2516,
      "mean_motion_rev_day": 15.30191553
    },
    {
      "epoch": "2026-03-30T07:40:57.693216Z",
      "apogee_km": 475.9476510515624,
      "perigee_km": 474.49912479996965,
      "latitude_deg": -1.3010565719191325e-05,
      "longitude_deg": 13.318859894141378,
      "height_km": 476.0475423800976,
      "semi_major_axis_km": 6853.360387925765,
      "eccentricity": 0.00010568,
      "inclination_deg": 53.1599,
      "raan_deg": 316.2728,
      "arg_perigee_deg": 84.1191,
      "mean_anomaly_deg": 275.993,
      "mean_motion_rev_day": 15.30197214
    }
  ]
}